GLOBALSTAR M068 [P]     
1 32266U 07048D   16022.17506745 -.00000094  00000-0  56408-4 0  9995
2 32266  51.9905 328.4642 0001153  71.7662  32.9540 12.62672947384013
GLOBALSTAR M079 [+]     
1 37188U 10054A   16021.81337743 -.00000119  00000-0 -85272-4 0  9994
2 37188  52.0028 154.5229 0000920 116.8340  38.6271 12.62269562243410
GLOBALSTAR M074 [+]     
1 37189U 10054B   16021.85560920 -.00000112  00000-0 -48297-4 0  9993
2 37189  52.0006 154.3460 0000958 120.5596  46.0308 12.62273833243418
GLOBALSTAR M076 [+]     
1 37190U 10054C   16022.16945953 -.00000122  00000-0 -10387-3 0  9992
2 37190  52.0020 153.1964 0001505 146.4117 276.7811 12.62275386243468
GLOBALSTAR M077 [+]     
1 37191U 10054D   16022.24586520 -.00000110  00000-0 -33353-4 0  9999
2 37191  52.0076 108.9851 0000846 104.2302 274.5145 12.62266594244220
GLOBALSTAR M075 [+]     
1 37192U 10054E   16022.51239314 -.00000102  00000-0  10050-4 0  9995
2 37192  51.9925 196.4417 0001203  74.1438 324.6076 12.62261799242742
GLOBALSTAR M073 [+]     
1 37193U 10054F   16021.74503067 -.00000115  00000-0 -64004-4 0  9992
2 37193  52.0063 109.9717 0000592 130.5178  39.2399 12.62271015244154
GLOBALSTAR M083 [+]     
1 37739U 11033A   16021.59227825 -.00000094  00000-0  57215-4 0  9995
2 37739  51.9865  63.8094 0000126 126.7326  39.5358 12.62258462213468
GLOBALSTAR M088 [+]     
1 37740U 11033B   16022.25727811 -.00000061  00000-0  23714-3 0  9991
2 37740  51.9751 330.0683 0000685  52.1430  95.5907 12.62276489209023
GLOBALSTAR M091 [+]     
1 37741U 11033C   16021.25349273 -.00000087  00000-0  92650-4 0  9997
2 37741  52.0004 290.6164 0000555  52.2292  90.2592 12.62268617209650
GLOBALSTAR M085 [+]     
1 37742U 11033D   16021.79133943 -.00000079  00000-0  13661-3 0  9997
2 37742  51.9847 243.0542 0000869  65.5029  59.0300 12.62268382210469
GLOBALSTAR M081 [+]     
1 37743U 11033E   16021.18444639 -.00000064  00000-0  22118-3 0  9999
2 37743  51.9937 245.5302 0001262  76.8027  77.4057 12.62268295210424
GLOBALSTAR M089 [+]     
1 37744U 11033F   16021.86186397 -.00000111  00000-0 -40716-4 0  9998
2 37744  51.9914 198.3808 0001260 111.9584  28.2193 12.62266034211226
GLOBALSTAR M084 [+]     
1 38040U 11080A   16021.57080530 -.00000089  00000-0  85188-4 0  9995
2 38040  52.0015  64.8216 0000386 108.2535  48.6485 12.62274622189195
GLOBALSTAR M080 [+]     
1 38041U 11080B   16021.61330723 -.00000088  00000-0  89832-4 0  9992
2 38041  52.0066  65.0016 0000542 170.1225 358.0018 12.62269274189187
GLOBALSTAR M082 [+]     
1 38042U 11080C   16022.17504690 -.00000099  00000-0  25269-4 0  9997
2 38042  52.0088  18.4832 0000142   8.6729  70.1718 12.62269369189993
GLOBALSTAR M092 [+]     
1 38043U 11080D   16021.68167061 -.00000107  00000-0 -18574-4 0  9992
2 38043  52.0088 110.0790 0000915  98.8008  54.4423 12.62264899188423
GLOBALSTAR M090 [+]     
1 38044U 11080E   16022.45032453 -.00000100  00000-0  20825-4 0  9999
2 38044  51.9899  15.8296 0000089 152.3301   9.1907 12.62268654190014
GLOBALSTAR M086 [+]     
1 38045U 11080F   16022.49375071 -.00000108  00000-0 -25363-4 0  9991
2 38045  51.9912  16.0815 0000074 110.0481  69.0092 12.62263479190026
GLOBALSTAR M097 [+]     
1 39072U 13005A   16021.75643255 -.00000084  00000-0  11153-3 0  9994
2 39072  52.0052 289.2732 0000586  92.3297 267.7636 12.62261500137161
GLOBALSTAR M093 [+]     
1 39073U 13005B   16021.79606744 -.00000080  00000-0  13025-3 0  9997
2 39073  51.9814 287.8751 0001151 111.3523 248.7466 12.62268780137172
GLOBALSTAR M094 [+]     
1 39074U 13005C   16021.81098089 -.00000091  00000-0  68862-4 0  9990
2 39074  51.9934 198.8684 0001008  93.2105 266.8877 12.62265049138675
GLOBALSTAR M096 [+]     
1 39075U 13005D   16022.04115104 -.00000072  00000-0  17464-3 0  9995
2 39075  52.0054 243.8593 0001348  27.6006 332.4932 12.62273835137953
GLOBALSTAR M078 [+]     
1 39076U 13005E   16021.78880647 -.00000104  00000-0 -32921-6 0  9992
2 39076  51.9906 333.2471 0000295  56.4892 303.6003 12.62269216136417
GLOBALSTAR M095 [+]     
1 39077U 13005F   16021.33396853 -.00000105  00000-0 -67115-5 0  9998
2 39077  51.9817 334.1511 0000449  14.2403 345.8476 12.62257193136362
